[{"OBJECT_NAME":"JILIN-1 GAOFEN 03D50","OBJECT_ID":"2022-167J","EPOCH":"2026-03-09T22:35:59.947584","MEAN_MOTION":15.32279726,"ECCENTRICITY":0.00065764,"INCLINATION":97.6731,"RA_OF_ASC_NODE":232.9458,"ARG_OF_PERICENTER":101.1473,"MEAN_ANOMALY":259.0507,"EPHEMERIS_TYPE":0,"CLASSIFICATION_TYPE":"U","NORAD_CAT_ID":54690,"ELEMENT_SET_NO":999,"REV_AT_EPOCH":18014,"BSTAR":0.00049467973,"MEAN_MOTION_DOT":0.00015359,"MEAN_MOTION_DDOT":0},{"OBJECT_NAME":"STARLINK-35244","OBJECT_ID":"2025-221G","EPOCH":"2026-03-09T18:54:18.497376","MEAN_MOTION":15.30198605,"ECCENTRICITY":0.00015767,"INCLINATION":53.1596,"RA_OF_ASC_NODE":90.3947,"ARG_OF_PERICENTER":94.6614,"MEAN_ANOMALY":265.4567,"EPHEMERIS_TYPE":0,"CLASSIFICATION_TYPE":"U","NORAD_CAT_ID":65829,"ELEMENT_SET_NO":999,"REV_AT_EPOCH":2602,"BSTAR":0.00056327804,"MEAN_MOTION_DOT":0.0001636,"MEAN_MOTION_DDOT":0}]
